{"type": "FeatureCollection", "features": [ {"type": "Feature", "properties": {"norad_id": 35979, "name": "COSMOS 2251 DEB", "group": "cosmos-2251-debris", "lat": -4.3587394333645655, "lon": -129.7205437697004, "alt_km": 608.2498131146867, "timestamp": "2025-12-16T05:49:09.610191+00:00", "meta": {"OBJECT_NAME": "COSMOS 2251 DEB", "OBJECT_ID": "1993-036AVV", "EPOCH": "2025-12-14T22:58:43.931424", "MEAN_MOTION": 14.74677572, "ECCENTRICITY": 0.0058977, "INCLINATION": 74.0101, "RA_OF_ASC_NODE": 234.0448, "ARG_OF_PERICENTER": 5.7065, "MEAN_ANOMALY": 10.8143, "EPHEMERIS_TYPE": 0, "CLASSIFICATION_TYPE": "U", "NORAD_CAT_ID": 35979, "ELEMENT_SET_NO": 999, "REV_AT_EPOCH": 88666, "BSTAR": 0.00057820557, "MEAN_MOTION_DOT": 3.938e-05, "MEAN_MOTION_DDOT": 0}, "tle": {"line1": "1 35979U 93036AVV 25348.95745291  .00003938  00000+0  57821-3 0  9996", "line2": "2 35979  74.0101 234.0448 0058977   5.7065  10.8143 14.74677572886663"}}, "geometry": {"type": "Point", "coordinates": [-129.7205437697004, -4.3587394333645655]}}, {"type": "Feature", "properties": {"norad_id": 35980, "name": "COSMOS 2251 DEB", "group": "cosmos-2251-debris", "lat": 39.146797365217914, "lon": 129.5429569788677, "alt_km": 725.349911664176, "timestamp": "2025-12-16T05:49:09.610201+00:00", "meta": {"OBJECT_NAME": "COSMOS 2251 DEB", "OBJECT_ID": "1993-036AVW", "EPOCH": "2025-12-15T01:39:40.666752", "MEAN_MOTION": 14.5933919, "ECCENTRICITY": 0.00539648, "INCLINATION": 73.9111, "RA_OF_ASC_NODE": 118.2073, "ARG_OF_PERICENTER": 252.458, "MEAN_ANOMALY": 107.0684, "EPHEMERIS_TYPE": 0, "CLASSIFICATION_TYPE": "U", "NORAD_CAT_ID": 35980, "ELEMENT_SET_NO": 999, "REV_AT_EPOCH": 61520, "BSTAR": 0.00098659578, "MEAN_MOTION_DOT": 4.733e-05, "MEAN_MOTION_DDOT": 0}, "tle": {"line1": "1 35980U 93036AVW 25349.06922068  .00004733  00000+0  98660-3 0  9990", "line2": "2 35980  73.9111 118.2073 0053964 252.4580 107.0684 14.59339190615208"}}, "geometry": {"type": "Point", "coordinates": [129.5429569788677, 39.146797365217914]}}, {"type": "Feature", "properties": {"norad_id": 35982, "name": "COSMOS 2251 DEB", "group": "cosmos-2251-debris", "lat": 7.0964108459982995, "lon": -17.734718314000983, "alt_km": 650.0983018978613, "timestamp": "2025-12-16T05:49:09.610212+00:00", "meta": {"OBJECT_NAME": "COSMOS 2251 DEB", "OBJECT_ID": "1993-036AVY", "EPOCH": "2025-12-14T06:11:08.043072", "MEAN_MOTION": 14.62762672, "ECCENTRICITY": 0.00641752, "INCLINATION": 74.0584, "RA_OF_ASC_NODE": 344.0235, "ARG_OF_PERICENTER": 49.8737, "MEAN_ANOMALY": 310.8028, "EPHEMERIS_TYPE": 0, "CLASSIFICATION_TYPE": "U", "NORAD_CAT_ID": 35982, "ELEMENT_SET_NO": 999, "REV_AT_EPOCH": 86188, "BSTAR": 0.00070329897, "MEAN_MOTION_DOT": 3.665e-05, "MEAN_MOTION_DDOT": 0}, "tle": {"line1": "1 35982U 93036AVY 25348.25773198  .00003665  00000+0  70330-3 0  9997", "line2": "2 35982  74.0584 344.0235 0064175  49.8737 310.8028 14.62762672861885"}}, "geometry": {"type": "Point", "coordinates": [-17.734718314000983, 7.0964108459982995]}}, {"type": "Feature", "properties": {"norad_id": 35987, "name": "COSMOS 2251 DEB", "group": "cosmos-2251-debris", "lat": 61.321698365324806, "lon": 108.48440708919951, "alt_km": 713.1455601682001, "timestamp": "2025-12-16T05:49:09.610222+00:00", "meta": {"OBJECT_NAME": "COSMOS 2251 DEB", "OBJECT_ID": "1993-036AWD", "EPOCH": "2025-12-14T05:02:56.141664", "MEAN_MOTION": 14.43139491, "ECCENTRICITY": 0.00459797, "INCLINATION": 73.9997, "RA_OF_ASC_NODE": 323.9049, "ARG_OF_PERICENTER": 89.0828, "MEAN_ANOMALY": 271.5596, "EPHEMERIS_TYPE": 0, "CLASSIFICATION_TYPE": "U", "NORAD_CAT_ID": 35987, "ELEMENT_SET_NO": 999, "REV_AT_EPOCH": 61086, "BSTAR": 0.001182332, "MEAN_MOTION_DOT": 3.997e-05, "MEAN_MOTION_DDOT": 0}, "tle": {"line1": "1 35987U 93036AWD 25348.21037201  .00003997  00000+0  11823-2 0  9995", "line2": "2 35987  73.9997 323.9049 0045979  89.0828 271.5596 14.43139491610862"}}, "geometry": {"type": "Point", "coordinates": [108.48440708919951, 61.321698365324806]}}, {"type": "Feature", "properties": {"norad_id": 35989, "name": "COSMOS 2251 DEB", "group": "cosmos-2251-debris", "lat": 72.58192732799087, "lon": -16.783225029999308, "alt_km": 759.23952902773, "timestamp": "2025-12-16T05:49:09.610232+00:00", "meta": {"OBJECT_NAME": "COSMOS 2251 DEB", "OBJECT_ID": "1993-036AWF", "EPOCH": "2025-12-15T12:43:44.525280", "MEAN_MOTION": 14.3710632, "ECCENTRICITY": 0.00221302, "INCLINATION": 74.0379, "RA_OF_ASC_NODE": 278.7, "ARG_OF_PERICENTER": 359.7916, "MEAN_ANOMALY": 0.3224, "EPHEMERIS_TYPE": 0, "CLASSIFICATION_TYPE": "U", "NORAD_CAT_ID": 35989, "ELEMENT_SET_NO": 999, "REV_AT_EPOCH": 87219, "BSTAR": 0.00023403924, "MEAN_MOTION_DOT": 6.71e-06, "MEAN_MOTION_DDOT": 0}, "tle": {"line1": "1 35989U 93036AWF 25349.53037645  .00000671  00000+0  23404-3 0  9990", "line2": "2 35989  74.0379 278.7000 0022130 359.7916   0.3224 14.37106320872193"}}, "geometry": {"type": "Point", "coordinates": [-16.783225029999308, 72.58192732799087]}}, {"type": "Feature", "properties": {"norad_id": 35993, "name": "COSMOS 2251 DEB", "group": "cosmos-2251-debris", "lat": -41.223002384413356, "lon": -48.49510242989965, "alt_km": 701.5413477938982, "timestamp": "2025-12-16T05:49:09.610242+00:00", "meta": {"OBJECT_NAME": "COSMOS 2251 DEB", "OBJECT_ID": "1993-036AWK", "EPOCH": "2025-12-13T05:55:18.939936", "MEAN_MOTION": 14.6530961, "ECCENTRICITY": 0.00288758, "INCLINATION": 74.015, "RA_OF_ASC_NODE": 331.8205, "ARG_OF_PERICENTER": 161.3333, "MEAN_ANOMALY": 198.8902, "EPHEMERIS_TYPE": 0, "CLASSIFICATION_TYPE": "U", "NORAD_CAT_ID": 35993, "ELEMENT_SET_NO": 999, "REV_AT_EPOCH": 60450, "BSTAR": 0.0012058199, "MEAN_MOTION_DOT": 6.521e-05, "MEAN_MOTION_DDOT": 0}, "tle": {"line1": "1 35993U 93036AWK 25347.24674699  .00006521  00000+0  12058-2 0  9999", "line2": "2 35993  74.0150 331.8205 0028875 161.3333 198.8902 14.65309610604507"}}, "geometry": {"type": "Point", "coordinates": [-48.49510242989965, -41.223002384413356]}}, {"type": "Feature", "properties": {"norad_id": 35996, "name": "COSMOS 2251 DEB", "group": "cosmos-2251-debris", "lat": -52.438110111966566, "lon": -61.92730093093127, "alt_km": 505.24943650664864, "timestamp": "2025-12-16T05:49:09.610252+00:00", "meta": {"OBJECT_NAME": "COSMOS 2251 DEB", "OBJECT_ID": "1993-036AWN", "EPOCH": "2025-12-15T00:08:43.967616", "MEAN_MOTION": 15.09208756, "ECCENTRICITY": 0.00877506, "INCLINATION": 74.0157, "RA_OF_ASC_NODE": 98.7399, "ARG_OF_PERICENTER": 189.1223, "MEAN_ANOMALY": 170.838, "EPHEMERIS_TYPE": 0, "CLASSIFICATION_TYPE": "U", "NORAD_CAT_ID": 35996, "ELEMENT_SET_NO": 999, "REV_AT_EPOCH": 72360, "BSTAR": 0.0005183755, "MEAN_MOTION_DOT": 8.989e-05, "MEAN_MOTION_DDOT": 0}, "tle": {"line1": "1 35996U 93036AWN 25349.00606444  .00008989  00000+0  51838-3 0  9991", "line2": "2 35996  74.0157  98.7399 0087750 189.1223 170.8380 15.09208756723604"}}, "geometry": {"type": "Point", "coordinates": [-61.92730093093127, -52.438110111966566]}}, {"type": "Feature", "properties": {"norad_id": 35997, "name": "COSMOS 2251 DEB", "group": "cosmos-2251-debris", "lat": -41.198378242829634, "lon": 166.20035700590725, "alt_km": 722.1275366263399, "timestamp": "2025-12-16T05:49:09.610262+00:00", "meta": {"OBJECT_NAME": "COSMOS 2251 DEB", "OBJECT_ID": "1993-036AWP", "EPOCH": "2025-12-14T22:35:08.657088", "MEAN_MOTION": 14.51324484, "ECCENTRICITY": 0.00157283, "INCLINATION": 74.0427, "RA_OF_ASC_NODE": 183.1527, "ARG_OF_PERICENTER": 258.4446, "MEAN_ANOMALY": 101.495, "EPHEMERIS_TYPE": 0, "CLASSIFICATION_TYPE": "U", "NORAD_CAT_ID": 35997, "ELEMENT_SET_NO": 999, "REV_AT_EPOCH": 70916, "BSTAR": 0.0004756856, "MEAN_MOTION_DOT": 1.87e-05, "MEAN_MOTION_DDOT": 0}, "tle": {"line1": "1 35997U 93036AWP 25348.94107242  .00001870  00000+0  47569-3 0  9994", "line2": "2 35997  74.0427 183.1527 0015728 258.4446 101.4950 14.51324484709161"}}, "geometry": {"type": "Point", "coordinates": [166.20035700590725, -41.198378242829634]}}, {"type": "Feature", "properties": {"norad_id": 36005, "name": "COSMOS 2251 DEB", "group": "cosmos-2251-debris", "lat": -57.30923821405203, "lon": 60.94641411412485, "alt_km": 729.2953716772436, "timestamp": "2025-12-16T05:49:09.610272+00:00", "meta": {"OBJECT_NAME": "COSMOS 2251 DEB", "OBJECT_ID": "1993-036AWX", "EPOCH": "2025-12-15T13:30:47.945088", "MEAN_MOTION": 14.47362431, "ECCENTRICITY": 0.00618623, "INCLINATION": 74.0272, "RA_OF_ASC_NODE": 88.7237, "ARG_OF_PERICENTER": 225.4927, "MEAN_ANOMALY": 134.1168, "EPHEMERIS_TYPE": 0, "CLASSIFICATION_TYPE": "U", "NORAD_CAT_ID": 36005, "ELEMENT_SET_NO": 999, "REV_AT_EPOCH": 87625, "BSTAR": 0.000203895, "MEAN_MOTION_DOT": 7.36e-06, "MEAN_MOTION_DDOT": 0}, "tle": {"line1": "1 36005U 93036AWX 25349.56305492  .00000736  00000+0  20389-3 0  9992", "line2": "2 36005  74.0272  88.7237 0061862 225.4927 134.1168 14.47362431876254"}}, "geometry": {"type": "Point", "coordinates": [60.94641411412485, -57.30923821405203]}}, {"type": "Feature", "properties": {"norad_id": 36045, "name": "COSMOS 2251 DEB", "group": "cosmos-2251-debris", "lat": -71.9475453990236, "lon": -11.201194192388085, "alt_km": 696.5432874603375, "timestamp": "2025-12-16T05:49:09.610282+00:00", "meta": {"OBJECT_NAME": "COSMOS 2251 DEB", "OBJECT_ID": "1993-036AXG", "EPOCH": "2025-12-15T22:01:33.167136", "MEAN_MOTION": 14.69931884, "ECCENTRICITY": 0.00481593, "INCLINATION": 73.7643, "RA_OF_ASC_NODE": 52.8241, "ARG_OF_PERICENTER": 65.5674, "MEAN_ANOMALY": 295.0509, "EPHEMERIS_TYPE": 0, "CLASSIFICATION_TYPE": "U", "NORAD_CAT_ID": 36045, "ELEMENT_SET_NO": 999, "REV_AT_EPOCH": 8435, "BSTAR": 0.0012401665, "MEAN_MOTION_DOT": 7.534e-05, "MEAN_MOTION_DDOT": 0}, "tle": {"line1": "1 36045U 93036AXG 25349.91774499  .00007534  00000+0  12402-2 0  9991", "line2": "2 36045  73.7643  52.8241 0048159  65.5674 295.0509 14.69931884 84355"}}, "geometry": {"type": "Point", "coordinates": [-11.201194192388085, -71.9475453990236]}}]}